TRANSPORTER-12 OBJECT AZ
1 62656U 25009AZ  26068.71026235  .00016057  00000+0  54903-3 0  9991
2 62656  97.3981 151.9913 0000987  45.3581 314.7740 15.30349724 63792
STARLINK-35547          
1 66119U 25237F   26068.24399068  .00015805  00000+0  54465-3 0  9990
2 66119  53.1620  41.6006 0001250  92.6754 267.4390 15.30197249 22545
